<?xml version="1.0" encoding="UTF-8"?>
<kml xmlns="http://www.opengis.net/kml/2.2" 
     xmlns:gx="http://www.google.com/kml/ext/2.2">
<Document>
 <name>NOAA HYSPLIT RESULTS</name>
 <open>1</open>
 <LookAt>
  <gx:TimeStamp>
   <when>2025-03-20T15:00:00Z</when>
  </gx:TimeStamp>
  <longitude>  55.5880</longitude>
  <latitude>  25.0376</latitude>
  <altitude>0</altitude>
  <tilt>0</tilt>
  <range>13700</range>
  <gx:altitudeMode>relativeToSeaFloor</gx:altitudeMode>
 </LookAt>
 <Style id="conc1">
  <LineStyle>
   <color>40000000</color>
  </LineStyle>
  <PolyStyle>
   <color>40FFFFFF</color>
   <fill>1</fill>
   <outline>1</outline>
  </PolyStyle>
 </Style>
 <Style id="conc2">
  <LineStyle>
   <color>40000000</color>
  </LineStyle>
  <PolyStyle>
   <color>4000FFFF</color>
   <fill>1</fill>
   <outline>1</outline>
  </PolyStyle>
 </Style>
 <Style id="conc3">
  <LineStyle>
   <color>40000000</color>
  </LineStyle>
  <PolyStyle>
   <color>40FF0000</color>
   <fill>1</fill>
   <outline>1</outline>
  </PolyStyle>
 </Style>
 <Style id="conc4">
  <LineStyle>
   <color>40000000</color>
  </LineStyle>
  <PolyStyle>
   <color>4000FF00</color>
   <fill>1</fill>
   <outline>1</outline>
  </PolyStyle>
 </Style>
 <Style id="conc5">
  <LineStyle>
   <color>40000000</color>
  </LineStyle>
  <PolyStyle>
   <color>40FFFF00</color>
   <fill>1</fill>
   <outline>1</outline>
  </PolyStyle>
 </Style>
 <Style id="conc6">
  <LineStyle>
   <color>40000000</color>
  </LineStyle>
  <PolyStyle>
   <color>400000FF</color>
   <fill>1</fill>
   <outline>1</outline>
  </PolyStyle>
 </Style>
 <Style id="conc7">
  <LineStyle>
   <color>40000000</color>
  </LineStyle>
  <PolyStyle>
   <color>400099FF</color>
   <fill>1</fill>
   <outline>1</outline>
  </PolyStyle>
 </Style>
 <Style id="conc8">
  <LineStyle>
   <color>40000000</color>
  </LineStyle>
  <PolyStyle>
   <color>4000FFFF</color>
   <fill>1</fill>
   <outline>1</outline>
  </PolyStyle>
 </Style>
 <Style id="conc9">
  <LineStyle>
   <color>40000000</color>
  </LineStyle>
  <PolyStyle>
   <color>4000FFCC</color>
   <fill>1</fill>
   <outline>1</outline>
  </PolyStyle>
 </Style>
 <Style id="conc10">
  <LineStyle>
   <color>40000000</color>
  </LineStyle>
  <PolyStyle>
   <color>40009900</color>
   <fill>1</fill>
   <outline>1</outline>
  </PolyStyle>
 </Style>
 <Style id="conc11">
  <LineStyle>
   <color>40000000</color>
  </LineStyle>
  <PolyStyle>
   <color>4066FF00</color>
   <fill>1</fill>
   <outline>1</outline>
  </PolyStyle>
 </Style>
 <Style id="conc12">
  <LineStyle>
   <color>40000000</color>
  </LineStyle>
  <PolyStyle>
   <color>40FFFF00</color>
   <fill>1</fill>
   <outline>1</outline>
  </PolyStyle>
 </Style>
 <Style id="conc13">
  <LineStyle>
   <color>40000000</color>
  </LineStyle>
  <PolyStyle>
   <color>40FF6600</color>
   <fill>1</fill>
   <outline>1</outline>
  </PolyStyle>
 </Style>
 <Style id="conc14">
  <LineStyle>
   <color>40000000</color>
  </LineStyle>
  <PolyStyle>
   <color>40FF0033</color>
   <fill>1</fill>
   <outline>1</outline>
  </PolyStyle>
 </Style>
 <Style id="conc15">
  <LineStyle>
   <color>40000000</color>
  </LineStyle>
  <PolyStyle>
   <color>40FF0099</color>
   <fill>1</fill>
   <outline>1</outline>
  </PolyStyle>
 </Style>
 <Style id="conc16">
  <LineStyle>
   <color>40000000</color>
  </LineStyle>
  <PolyStyle>
   <color>40FF00CC</color>
   <fill>1</fill>
   <outline>1</outline>
  </PolyStyle>
 </Style>
 <Style id="conc17">
  <LineStyle>
   <color>40000000</color>
  </LineStyle>
  <PolyStyle>
   <color>40660066</color>
   <fill>1</fill>
   <outline>1</outline>
  </PolyStyle>
 </Style>
 <Style id="conc18">
  <LineStyle>
   <color>40000000</color>
  </LineStyle>
  <PolyStyle>
   <color>40660099</color>
   <fill>1</fill>
   <outline>1</outline>
  </PolyStyle>
 </Style>
 <Style id="conc19">
  <LineStyle>
   <color>40000000</color>
  </LineStyle>
  <PolyStyle>
   <color>40330066</color>
   <fill>1</fill>
   <outline>1</outline>
  </PolyStyle>
 </Style>
 <Style id="conc20">
  <LineStyle>
   <color>40000000</color>
  </LineStyle>
  <PolyStyle>
   <color>40330033</color>
   <fill>1</fill>
   <outline>1</outline>
  </PolyStyle>
 </Style>
 <Style id="conc21">
  <LineStyle>
   <color>40000000</color>
  </LineStyle>
  <PolyStyle>
   <color>40000099</color>
   <fill>1</fill>
   <outline>1</outline>
  </PolyStyle>
 </Style>
 <Style id="conc22">
  <LineStyle>
   <color>40000000</color>
  </LineStyle>
  <PolyStyle>
   <color>40FFCCFF</color>
   <fill>1</fill>
   <outline>1</outline>
  </PolyStyle>
 </Style>
 <Style id="conc23">
  <LineStyle>
   <color>40000000</color>
  </LineStyle>
  <PolyStyle>
   <color>400066FF</color>
   <fill>1</fill>
   <outline>1</outline>
  </PolyStyle>
 </Style>
 <Style id="conc24">
  <LineStyle>
   <color>40000000</color>
  </LineStyle>
  <PolyStyle>
   <color>4000CCFF</color>
   <fill>1</fill>
   <outline>1</outline>
  </PolyStyle>
 </Style>
 <Style id="conc25">
  <LineStyle>
   <color>40000000</color>
  </LineStyle>
  <PolyStyle>
   <color>4000FF66</color>
   <fill>1</fill>
   <outline>1</outline>
  </PolyStyle>
 </Style>
 <Style id="conc26">
  <LineStyle>
   <color>40000000</color>
  </LineStyle>
  <PolyStyle>
   <color>4000FF00</color>
   <fill>1</fill>
   <outline>1</outline>
  </PolyStyle>
 </Style>
 <Style id="conc27">
  <LineStyle>
   <color>40000000</color>
  </LineStyle>
  <PolyStyle>
   <color>40CCFF00</color>
   <fill>1</fill>
   <outline>1</outline>
  </PolyStyle>
 </Style>
 <Style id="conc28">
  <LineStyle>
   <color>40000000</color>
  </LineStyle>
  <PolyStyle>
   <color>40FF0000</color>
   <fill>1</fill>
   <outline>1</outline>
  </PolyStyle>
 </Style>
 <Style id="conc29">
  <LineStyle>
   <color>40000000</color>
  </LineStyle>
  <PolyStyle>
   <color>40FF0066</color>
   <fill>1</fill>
   <outline>1</outline>
  </PolyStyle>
 </Style>
 <Style id="conc30">
  <LineStyle>
   <color>40000000</color>
  </LineStyle>
  <PolyStyle>
   <color>40CC00FF</color>
   <fill>1</fill>
   <outline>1</outline>
  </PolyStyle>
 </Style>
 <Style id="conc31">
  <LineStyle>
   <color>40000000</color>
  </LineStyle>
  <PolyStyle>
   <color>406600FF</color>
   <fill>1</fill>
   <outline>1</outline>
  </PolyStyle>
 </Style>
 <Style id="conc32">
  <LineStyle>
   <color>40000000</color>
  </LineStyle>
  <PolyStyle>
   <color>40000000</color>
   <fill>1</fill>
   <outline>1</outline>
  </PolyStyle>
 </Style>
 <Style id="maxv">
  <LineStyle>
   <color>FFFFFFFF</color>
   <width>3</width>
  </LineStyle>
  <PolyStyle>
   <fill>0</fill>
  </PolyStyle>
 </Style>
 <Style id="sorc">
  <IconStyle>
   <color>ff0000ff</color>
   <scale>0.8</scale>
   <Icon>
    <href>icon63.png</href>
   </Icon>
   <hotSpot x="0.5" y="0.5" xunits="fraction" yunits="fraction"></hotSpot>
  </IconStyle>
  <LabelStyle>
   <color>ff0000ff</color>
  </LabelStyle>
  <LineStyle>
   <color>c8ffffff</color>
   <width>2</width>
  </LineStyle>
 </Style>
 <Folder>
  <name>Soure Locations</name>
  <visibility>0</visibility>
  <Placemark>
   <description><![CDATA[<pre>
LAT:   25.037573 LON:   55.588005
Released between    5. and    8.m AGL</pre>]]>
   </description>
   <styleUrl>#sorc</styleUrl>
   <Point>
    <extrude>1</extrude>
    <altitudeMode>clampToGround</altitudeMode>
    <coordinates>55.588005,25.037573,8.0</coordinates>
   </Point>
  </Placemark>
  <Placemark>
   <description><![CDATA[<pre>
LAT:   24.821941 LON:   55.236946
Released between    5. and    8.m AGL</pre>]]>
   </description>
   <styleUrl>#sorc</styleUrl>
   <Point>
    <extrude>1</extrude>
    <altitudeMode>clampToGround</altitudeMode>
    <coordinates>55.236946,24.821941,8.0</coordinates>
   </Point>
  </Placemark>
  <Placemark>
   <description><![CDATA[<pre>
LAT:   25.267422 LON:   55.335342
Released between    5. and    8.m AGL</pre>]]>
   </description>
   <styleUrl>#sorc</styleUrl>
   <Point>
    <extrude>1</extrude>
    <altitudeMode>clampToGround</altitudeMode>
    <coordinates>55.335342,25.267422,8.0</coordinates>
   </Point>
  </Placemark>
 </Folder>
 <ScreenOverlay>
  <name>HYSPLIT Information</name>
  <description>NOAA ARL HYSPLIT Model  http://www.arl.noaa.gov/HYSPLIT_info.php</description>
  <Icon>
   <href>logocon.gif</href>
  </Icon>
  <overlayXY x="1" y="1" xunits="fraction" yunits="fraction"/>
  <screenXY x="1" y="1" xunits="fraction" yunits="fraction"/>
  <rotationXY x="0" y="0" xunits="fraction" yunits="fraction"/>
  <size x="0" y="0" xunits="pixels" yunits="pixels"/>
 </ScreenOverlay>
 <ScreenOverlay>
  <name>NOAA</name>
  <Snippet maxLines="0"></Snippet>
  <description>National Oceanic and Atmospheric Administration  http://www.noaa.gov</description>
  <Icon>
   <href>noaa_google.gif</href>
  </Icon>
  <overlayXY x="0" y="1" xunits="fraction" yunits="fraction"/>
  <screenXY x="0.3" y="1" xunits="fraction" yunits="fraction"/>
  <rotationXY x="0" y="0" xunits="fraction" yunits="fraction"/>
  <size x="0" y="0" xunits="pixels" yunits="pixels"/>
 </ScreenOverlay>
 <Folder>
  <name>NOAA NWS kml Weather Data</name>
  <visibility>0</visibility>
  <description>http://weather.gov/gis/  Click on the link 
to access weather related Google Earth overlays from the National Weather Service.
  </description>
 </Folder>
 <Folder>
  <name>NOAA NESDIS kml Smoke/Fire Data</name>
  <visibility>0</visibility>
  <description>http://www.ospo.noaa.gov/Products/land/hms.html Click on the link 
to access wildfire smoke Google Earth overlays from NOAA NESDIS.
  </description>
 </Folder>
 <Folder>
  <name>EPA AIRNow Air Quality Index (AQI)</name>
  <visibility>0</visibility>
  <description>http://www.epa.gov/airnow/today/airnow.kml  Click on the link 
to access AQI data from EPA. The results will appear in the list below.
  </description>
 </Folder>
 <Folder>
  <name><![CDATA[<pre>Concentration 
(Valid:20250320 1600UTC)</pre>]]>
  </name>
  <visibility>1</visibility>
  <open>1</open>
  <description><![CDATA[<pre>
Averaged from 00000 to 00100m
Valid:20250320 1600 UTC
   </pre>]]>
  </description>
  <ScreenOverlay>
   <name>Legend</name>
   <Snippet maxLines="0"></Snippet>
   <TimeSpan>
    <begin>2025-03-20T15:00:00Z</begin>
    <end>2025-03-20T16:00:00Z</end>
   </TimeSpan>
   <Icon>
    <href>GELABEL_01_ps.gif</href>
   </Icon>
   <overlayXY x="0" y="1" xunits="fraction" yunits="fraction"/>
   <screenXY x="0" y="1" xunits="fraction" yunits="fraction"/>
   <rotationXY x="0" y="0" xunits="fraction" yunits="fraction"/>
   <size x="0" y="0" xunits="pixels" yunits="pixels"/>
  </ScreenOverlay>
  <Placemark>
   <name>Contour Level: 1.0E-12 mass/m3</name>
   <Snippet maxLines="0"></Snippet>
   <TimeSpan>
    <begin>2025-03-20T15:00:00Z</begin>
    <end>2025-03-20T16:00:00Z</end>
   </TimeSpan>
   <styleUrl>#conc5</styleUrl>
   <MultiGeometry>
    <Polygon>
     <extrude>1</extrude>
     <altitudeMode>clampToGround</altitudeMode>
     <outerBoundaryIs>
      <LinearRing>
       <coordinates>
55.15169,24.60752,00100
55.15282,24.60626,00100
55.15424,24.60753,00100
55.15527,24.60843,00100
55.15643,24.60978,00100
55.15665,24.61203,00100
55.15773,24.61400,00100
55.15875,24.61428,00100
55.16020,24.61466,00100
55.16153,24.61654,00100
55.16196,24.61879,00100
55.16208,24.62104,00100
55.16180,24.62329,00100
55.16226,24.62553,00100
55.16187,24.62778,00100
55.16263,24.62840,00100
55.16307,24.62779,00100
55.16278,24.62554,00100
55.16315,24.62329,00100
55.16304,24.62104,00100
55.16336,24.61879,00100
55.16393,24.61655,00100
55.16380,24.61430,00100
55.16437,24.61205,00100
55.16472,24.60981,00100
55.16516,24.60915,00100
55.16650,24.60756,00100
55.16765,24.60616,00100
55.17012,24.60564,00100
55.17261,24.60572,00100
55.17508,24.60566,00100
55.17755,24.60572,00100
55.18001,24.60711,00100
55.18031,24.60760,00100
55.18089,24.60985,00100
55.18121,24.61210,00100
55.18208,24.61435,00100
55.18246,24.61451,00100
55.18494,24.61529,00100
55.18591,24.61661,00100
55.18654,24.61886,00100
55.18681,24.62111,00100
55.18672,24.62336,00100
55.18713,24.62560,00100
55.18665,24.62785,00100
55.18724,24.63010,00100
55.18665,24.63235,00100
55.18735,24.63336,00100
55.18982,24.63367,00100
55.19122,24.63236,00100
55.19046,24.63011,00100
55.19022,24.62786,00100
55.18985,24.62584,00100
55.18945,24.62561,00100
55.18985,24.62516,00100
55.19003,24.62337,00100
55.19052,24.62112,00100
55.19234,24.61977,00100
55.19481,24.62018,00100
55.19568,24.62113,00100
55.19620,24.62338,00100
55.19641,24.62563,00100
55.19623,24.62788,00100
55.19725,24.62916,00100
55.19954,24.63013,00100
55.19972,24.63025,00100
55.20097,24.63239,00100
55.20175,24.63464,00100
55.20154,24.63688,00100
55.20174,24.63913,00100
55.20140,24.64138,00100
55.20135,24.64363,00100
55.20175,24.64588,00100
55.20161,24.64812,00100
55.20213,24.64997,00100
55.20413,24.64813,00100
55.20285,24.64588,00100
55.20346,24.64363,00100
55.20352,24.64139,00100
55.20325,24.63914,00100
55.20422,24.63689,00100
55.20287,24.63464,00100
55.20410,24.63239,00100
55.20325,24.63014,00100
55.20404,24.62790,00100
55.20451,24.62565,00100
55.20468,24.62540,00100
55.20715,24.62394,00100
55.20963,24.62389,00100
55.21165,24.62567,00100
55.21172,24.62792,00100
55.21210,24.62938,00100
55.21268,24.63017,00100
55.21208,24.63092,00100
55.21170,24.63241,00100
55.21207,24.63426,00100
55.21237,24.63466,00100
55.21207,24.63511,00100
55.21161,24.63691,00100
55.21198,24.63916,00100
55.21188,24.64141,00100
55.21190,24.64365,00100
55.21204,24.64491,00100
55.21237,24.64590,00100
55.21204,24.64647,00100
55.21173,24.64815,00100
55.21204,24.64906,00100
55.21358,24.65040,00100
55.21449,24.65157,00100
55.21527,24.65265,00100
55.21637,24.65491,00100
55.21642,24.65716,00100
55.21693,24.65940,00100
55.21661,24.66165,00100
55.21674,24.66390,00100
55.21680,24.66615,00100
55.21664,24.66840,00100
55.21692,24.66965,00100
55.21742,24.67064,00100
55.21690,24.67149,00100
55.21666,24.67289,00100
55.21690,24.67412,00100
55.21754,24.67514,00100
55.21689,24.67607,00100
55.21652,24.67739,00100
55.21689,24.67880,00100
55.21745,24.67964,00100
55.21689,24.68083,00100
55.21672,24.68188,00100
55.21687,24.68321,00100
55.21725,24.68414,00100
55.21686,24.68577,00100
55.21680,24.68638,00100
55.21666,24.68863,00100
55.21686,24.69043,00100
55.21698,24.69088,00100
55.21686,24.69120,00100
55.21658,24.69312,00100
55.21684,24.69363,00100
55.21931,24.69471,00100
55.22023,24.69538,00100
55.22104,24.69763,00100
55.22098,24.69988,00100
55.22020,24.70213,00100
55.21928,24.70369,00100
55.21886,24.70437,00100
55.21681,24.70662,00100
55.21851,24.70887,00100
55.21927,24.70974,00100
55.22079,24.71112,00100
55.22163,24.71337,00100
55.22174,24.71345,00100
55.22421,24.71408,00100
55.22626,24.71563,00100
55.22646,24.71788,00100
55.22667,24.71889,00100
55.22733,24.72013,00100
55.22665,24.72136,00100
55.22644,24.72238,00100
55.22665,24.72345,00100
55.22726,24.72463,00100
55.22664,24.72616,00100
55.22653,24.72688,00100
55.22664,24.72786,00100
55.22704,24.72912,00100
55.22679,24.73137,00100
55.22739,24.73362,00100
55.22800,24.73587,00100
55.22798,24.73812,00100
55.22849,24.74037,00100
55.22833,24.74261,00100
55.22906,24.74481,00100
55.22917,24.74487,00100
55.23091,24.74712,00100
55.23154,24.74802,00100
55.23267,24.74937,00100
55.23271,24.75162,00100
55.23318,24.75387,00100
55.23328,24.75612,00100
55.23337,24.75837,00100
55.23361,24.76062,00100
55.23361,24.76286,00100
55.23389,24.76511,00100
55.23395,24.76620,00100
55.23483,24.76736,00100
55.23642,24.76843,00100
55.23755,24.76962,00100
55.23763,24.77186,00100
55.23848,24.77411,00100
55.23856,24.77636,00100
55.23868,24.77861,00100
55.23872,24.78086,00100
55.23882,24.78311,00100
55.23886,24.78321,00100
55.24092,24.78311,00100
55.24133,24.78299,00100
55.24149,24.78312,00100
55.24297,24.78537,00100
55.24341,24.78761,00100
55.24370,24.78987,00100
55.24379,24.79099,00100
55.24478,24.79211,00100
55.24561,24.79436,00100
55.24600,24.79662,00100
55.24625,24.79675,00100
55.24808,24.79887,00100
55.24835,24.80112,00100
55.24860,24.80337,00100
55.24870,24.80381,00100
55.25119,24.80460,00100
55.25186,24.80562,00100
55.25266,24.80787,00100
55.25307,24.81012,00100
55.25302,24.81237,00100
55.25328,24.81462,00100
55.25323,24.81686,00100
55.25328,24.81911,00100
55.25322,24.82136,00100
55.25301,24.82361,00100
55.25278,24.82586,00100
55.25111,24.82798,00100
55.25098,24.82810,00100
55.25085,24.83035,00100
55.24982,24.83259,00100
55.24863,24.83419,00100
55.24615,24.83282,00100
55.24603,24.83259,00100
55.24367,24.83244,00100
55.24120,24.83247,00100
55.23950,24.83257,00100
55.23871,24.83328,00100
55.23624,24.83479,00100
55.23615,24.83481,00100
55.23375,24.83618,00100
55.23128,24.83616,00100
55.22964,24.83479,00100
55.22881,24.83409,00100
55.22632,24.83408,00100
55.22417,24.83253,00100
55.22385,24.83236,00100
55.22189,24.83028,00100
55.22250,24.82803,00100
55.22139,24.82767,00100
55.21892,24.82715,00100
55.21741,24.82577,00100
55.21750,24.82353,00100
55.21689,24.82127,00100
55.21683,24.81903,00100
55.21687,24.81678,00100
55.21664,24.81453,00100
55.21649,24.81257,00100
55.21599,24.81228,00100
55.21400,24.81144,00100
55.21277,24.81002,00100
55.21402,24.80788,00100
55.21404,24.80778,00100
55.21402,24.80776,00100
55.21161,24.80552,00100
55.21155,24.80529,00100
55.20996,24.80327,00100
55.20909,24.80152,00100
55.20866,24.80102,00100
55.20856,24.79877,00100
55.20714,24.79652,00100
55.20663,24.79604,00100
55.20459,24.79427,00100
55.20439,24.79202,00100
55.20416,24.79111,00100
55.20337,24.78977,00100
55.20384,24.78752,00100
55.20171,24.78527,00100
55.20171,24.78526,00100
55.20003,24.78301,00100
55.19925,24.78144,00100
55.19867,24.78076,00100
55.19899,24.77851,00100
55.19756,24.77626,00100
55.19678,24.77542,00100
55.19522,24.77401,00100
55.19473,24.77176,00100
55.19434,24.76999,00100
55.19412,24.76951,00100
55.19434,24.76891,00100
55.19453,24.76726,00100
55.19434,24.76664,00100
55.19276,24.76501,00100
55.19186,24.76377,00100
55.19116,24.76275,00100
55.19028,24.76051,00100
55.18996,24.75826,00100
55.18942,24.75661,00100
55.18906,24.75600,00100
55.18895,24.75376,00100
55.18883,24.75151,00100
55.18861,24.74926,00100
55.18797,24.74701,00100
55.18698,24.74662,00100
55.18451,24.74564,00100
55.18385,24.74475,00100
55.18365,24.74250,00100
55.18204,24.74044,00100
55.18169,24.74025,00100
55.18010,24.73800,00100
55.17958,24.73676,00100
55.17886,24.73574,00100
55.17892,24.73350,00100
55.17783,24.73125,00100
55.17712,24.73090,00100
55.17477,24.72899,00100
55.17465,24.72826,00100
55.17422,24.72674,00100
55.17381,24.72449,00100
55.17468,24.72279,00100
55.17480,24.72224,00100
55.17528,24.72000,00100
55.17717,24.71900,00100
55.17851,24.71775,00100
55.17770,24.71551,00100
55.17778,24.71326,00100
55.17747,24.71101,00100
55.17755,24.70876,00100
55.17731,24.70651,00100
55.17722,24.70631,00100
55.17690,24.70651,00100
55.17622,24.70876,00100
55.17566,24.71100,00100
55.17474,24.71325,00100
55.17471,24.71331,00100
55.17224,24.71418,00100
55.17131,24.71324,00100
55.17055,24.71099,00100
55.17001,24.70874,00100
55.16978,24.70765,00100
55.16934,24.70649,00100
55.16731,24.70432,00100
55.16719,24.70424,00100
55.16562,24.70198,00100
55.16486,24.70077,00100
55.16438,24.69973,00100
55.16397,24.69748,00100
55.16345,24.69523,00100
55.16356,24.69298,00100
55.16342,24.69074,00100
55.16377,24.68849,00100
55.16339,24.68624,00100
55.16243,24.68552,00100
55.16032,24.68398,00100
55.15997,24.68236,00100
55.15976,24.68173,00100
55.15952,24.67948,00100
55.15999,24.67777,00100
55.16006,24.67724,00100
55.16016,24.67499,00100
55.16095,24.67274,00100
55.16000,24.67123,00100
55.15964,24.67049,00100
55.15933,24.66825,00100
55.15854,24.66599,00100
55.15839,24.66374,00100
55.15831,24.66150,00100
55.15833,24.65925,00100
55.15842,24.65700,00100
55.15759,24.65613,00100
55.15512,24.65511,00100
55.15486,24.65474,00100
55.15417,24.65249,00100
55.15411,24.65024,00100
55.15453,24.64799,00100
55.15515,24.64656,00100
55.15553,24.64575,00100
55.15762,24.64454,00100
55.15833,24.64351,00100
55.15843,24.64126,00100
55.15839,24.63901,00100
55.15836,24.63676,00100
55.15778,24.63452,00100
55.15765,24.63396,00100
55.15591,24.63226,00100
55.15520,24.63137,00100
55.15424,24.63001,00100
55.15439,24.62776,00100
55.15396,24.62551,00100
55.15413,24.62326,00100
55.15408,24.62102,00100
55.15411,24.61877,00100
55.15388,24.61652,00100
55.15277,24.61590,00100
55.15031,24.61502,00100
55.14981,24.61426,00100
55.14938,24.61201,00100
55.14984,24.60976,00100
55.15033,24.60902,00100
55.15169,24.60752,00100
       </coordinates>
      </LinearRing>
     </outerBoundaryIs>
     <innerBoundaryIs>
      <LinearRing>
       <coordinates>
55.17912,24.61659,00100
55.17751,24.61637,00100
55.17740,24.61658,00100
55.17751,24.61739,00100
55.17912,24.61659,00100
       </coordinates>
      </LinearRing>
     </innerBoundaryIs>
    </Polygon>
    <Polygon>
     <extrude>1</extrude>
     <altitudeMode>clampToGround</altitudeMode>
     <outerBoundaryIs>
      <LinearRing>
       <coordinates>
55.14557,24.62774,00100
55.14780,24.62596,00100
55.15027,24.62716,00100
55.15063,24.62775,00100
55.15176,24.63000,00100
55.15173,24.63225,00100
55.15152,24.63450,00100
55.15024,24.63579,00100
55.14777,24.63604,00100
55.14529,24.63530,00100
55.14474,24.63448,00100
55.14426,24.63223,00100
55.14459,24.62998,00100
55.14532,24.62802,00100
55.14557,24.62774,00100
       </coordinates>
      </LinearRing>
     </outerBoundaryIs>
     <innerBoundaryIs>
      <LinearRing>
       <coordinates>
55.19421,24.63686,00100
55.19229,24.63502,00100
55.19157,24.63686,00100
55.19218,24.63911,00100
55.19214,24.64136,00100
55.19218,24.64360,00100
55.19226,24.64406,00100
55.19473,24.64401,00100
55.19481,24.64361,00100
55.19475,24.64136,00100
55.19473,24.64131,00100
55.19299,24.63911,00100
55.19421,24.63686,00100
       </coordinates>
      </LinearRing>
     </innerBoundaryIs>
     <innerBoundaryIs>
      <LinearRing>
       <coordinates>
55.19391,24.64810,00100
55.19225,24.64713,00100
55.19208,24.64810,00100
55.19225,24.64869,00100
55.19391,24.64810,00100
       </coordinates>
      </LinearRing>
     </innerBoundaryIs>
     <innerBoundaryIs>
      <LinearRing>
       <coordinates>
55.19386,24.65260,00100
55.19223,24.65186,00100
55.19205,24.65260,00100
55.19223,24.65332,00100
55.19386,24.65260,00100
       </coordinates>
      </LinearRing>
     </innerBoundaryIs>
     <innerBoundaryIs>
      <LinearRing>
       <coordinates>
55.20523,24.65263,00100
55.20461,24.65129,00100
55.20213,24.65074,00100
55.20171,24.65262,00100
55.20212,24.65444,00100
55.20273,24.65487,00100
55.20212,24.65532,00100
55.20160,24.65712,00100
55.20210,24.65838,00100
55.20352,24.65937,00100
55.20457,24.66006,00100
55.20589,24.66162,00100
55.20645,24.66387,00100
55.20668,24.66612,00100
55.20671,24.66837,00100
55.20702,24.66950,00100
55.20909,24.66838,00100
55.20856,24.66613,00100
55.20888,24.66388,00100
55.20944,24.66163,00100
55.20880,24.65938,00100
55.20953,24.65742,00100
55.20956,24.65714,00100
55.20953,24.65704,00100
55.20706,24.65538,00100
55.20624,24.65488,00100
55.20523,24.65263,00100
       </coordinates>
      </LinearRing>
     </innerBoundaryIs>
     <innerBoundaryIs>
      <LinearRing>
       <coordinates>
55.19400,24.65710,00100
55.19221,24.65652,00100
55.19206,24.65709,00100
55.19221,24.65787,00100
55.19400,24.65710,00100
       </coordinates>
      </LinearRing>
     </innerBoundaryIs>
     <innerBoundaryIs>
      <LinearRing>
       <coordinates>
55.20924,24.67287,00100
55.20702,24.67175,00100
55.20683,24.67287,00100
55.20700,24.67357,00100
55.20924,24.67287,00100
       </coordinates>
      </LinearRing>
     </innerBoundaryIs>
     <innerBoundaryIs>
      <LinearRing>
       <coordinates>
55.20956,24.67737,00100
55.20947,24.67700,00100
55.20700,24.67663,00100
55.20682,24.67736,00100
55.20699,24.67845,00100
55.20947,24.67778,00100
55.20956,24.67737,00100
       </coordinates>
      </LinearRing>
     </innerBoundaryIs>
     <innerBoundaryIs>
      <LinearRing>
       <coordinates>
55.20883,24.68187,00100
55.20699,24.68080,00100
55.20668,24.68186,00100
55.20697,24.68287,00100
55.20883,24.68187,00100
       </coordinates>
      </LinearRing>
     </innerBoundaryIs>
     <innerBoundaryIs>
      <LinearRing>
       <coordinates>
55.17274,24.69301,00100
55.17230,24.69249,00100
55.17198,24.69301,00100
55.17230,24.69450,00100
55.17274,24.69301,00100
       </coordinates>
      </LinearRing>
     </innerBoundaryIs>
     <innerBoundaryIs>
      <LinearRing>
       <coordinates>
55.17285,24.69751,00100
55.17230,24.69593,00100
55.17174,24.69750,00100
55.17229,24.69873,00100
55.17285,24.69751,00100
       </coordinates>
      </LinearRing>
     </innerBoundaryIs>
     <innerBoundaryIs>
      <LinearRing>
       <coordinates>
55.18704,24.73352,00100
55.18701,24.73348,00100
55.18700,24.73352,00100
55.18701,24.73355,00100
55.18704,24.73352,00100
       </coordinates>
      </LinearRing>
     </innerBoundaryIs>
    </Polygon>
    <Polygon>
     <extrude>1</extrude>
     <altitudeMode>clampToGround</altitudeMode>
     <outerBoundaryIs>
      <LinearRing>
       <coordinates>
55.49008,24.86667,00100
55.49138,24.86507,00100
55.49385,24.86485,00100
55.49574,24.86667,00100
55.49632,24.86782,00100
55.49757,24.86892,00100
55.49881,24.86930,00100
55.50117,24.87117,00100
55.50128,24.87154,00100
55.50208,24.87342,00100
55.50256,24.87567,00100
55.50272,24.87792,00100
55.50375,24.87873,00100
55.50623,24.87985,00100
55.50662,24.88017,00100
55.50668,24.88242,00100
55.50858,24.88467,00100
55.50793,24.88692,00100
55.50870,24.88757,00100
55.50931,24.88692,00100
55.50885,24.88467,00100
55.50954,24.88242,00100
55.51007,24.88017,00100
55.51118,24.87925,00100
55.51367,24.87888,00100
55.51614,24.87870,00100
55.51862,24.87965,00100
55.51965,24.88017,00100
55.52075,24.88242,00100
55.52110,24.88290,00100
55.52240,24.88467,00100
55.52249,24.88692,00100
55.52296,24.88917,00100
55.52357,24.89090,00100
55.52423,24.89142,00100
55.52505,24.89367,00100
55.52585,24.89592,00100
55.52605,24.89719,00100
55.52626,24.89816,00100
55.52783,24.90042,00100
55.52699,24.90266,00100
55.52852,24.90370,00100
55.52910,24.90266,00100
55.52876,24.90042,00100
55.52957,24.89817,00100
55.53050,24.89592,00100
55.53101,24.89539,00100
55.53348,24.89473,00100
55.53534,24.89592,00100
55.53596,24.89717,00100
55.53644,24.89817,00100
55.53705,24.90042,00100
55.53709,24.90266,00100
55.53723,24.90491,00100
55.53691,24.90716,00100
55.53844,24.90897,00100
55.54028,24.90941,00100
55.54092,24.90970,00100
55.54182,24.91166,00100
55.54222,24.91391,00100
55.54211,24.91615,00100
55.54224,24.91840,00100
55.54256,24.92065,00100
55.54276,24.92290,00100
55.54321,24.92515,00100
55.54340,24.92609,00100
55.54456,24.92740,00100
55.54587,24.92789,00100
55.54825,24.92965,00100
55.54834,24.92976,00100
55.55083,24.93009,00100
55.55330,24.93108,00100
55.55426,24.93190,00100
55.55579,24.93310,00100
55.55658,24.93415,00100
55.55721,24.93639,00100
55.55739,24.93864,00100
55.55736,24.94089,00100
55.55748,24.94314,00100
55.55826,24.94367,00100
55.56073,24.94373,00100
55.56189,24.94539,00100
55.56238,24.94764,00100
55.56241,24.94988,00100
55.56229,24.95213,00100
55.56322,24.95414,00100
55.56570,24.95384,00100
55.56677,24.95438,00100
55.56818,24.95485,00100
55.57060,24.95663,00100
55.57065,24.95669,00100
55.57195,24.95888,00100
55.57234,24.96113,00100
55.57256,24.96337,00100
55.57314,24.96461,00100
55.57513,24.96562,00100
55.57562,24.96601,00100
55.57675,24.96787,00100
55.57721,24.97012,00100
55.57739,24.97237,00100
55.57741,24.97462,00100
55.57727,24.97687,00100
55.57809,24.97856,00100
55.58057,24.97844,00100
55.58131,24.97911,00100
55.58228,24.98136,00100
55.58257,24.98361,00100
55.58266,24.98586,00100
55.58279,24.98811,00100
55.58305,24.98878,00100
55.58554,24.98891,00100
55.58655,24.99035,00100
55.58731,24.99260,00100
55.58746,24.99485,00100
55.58755,24.99710,00100
55.58784,24.99935,00100
55.58801,25.00073,00100
55.58932,25.00159,00100
55.59048,25.00195,00100
55.59264,25.00384,00100
55.59297,25.00536,00100
55.59331,25.00609,00100
55.59357,25.00834,00100
55.59528,25.01059,00100
55.59546,25.01133,00100
55.59673,25.01284,00100
55.59793,25.01446,00100
55.59862,25.01509,00100
55.59793,25.01572,00100
55.59756,25.01733,00100
55.59793,25.01762,00100
55.60010,25.01958,00100
55.59921,25.02183,00100
55.60042,25.02236,00100
55.60291,25.02365,00100
55.60336,25.02408,00100
55.60352,25.02633,00100
55.60390,25.02857,00100
55.60477,25.03082,00100
55.60291,25.03278,00100
55.60283,25.03307,00100
55.60291,25.03327,00100
55.60495,25.03532,00100
55.60291,25.03718,00100
55.60277,25.03757,00100
55.60291,25.03822,00100
55.60466,25.03981,00100
55.60291,25.04153,00100
55.60251,25.04206,00100
55.60269,25.04431,00100
55.60254,25.04656,00100
55.60252,25.04881,00100
55.60175,25.05106,00100
55.60042,25.05190,00100
55.59793,25.05186,00100
55.59546,25.05222,00100
55.59341,25.05106,00100
55.59297,25.05083,00100
55.59227,25.05106,00100
55.59050,25.05187,00100
55.58801,25.05123,00100
55.58554,25.05223,00100
55.58305,25.05149,00100
55.58057,25.05188,00100
55.57878,25.05106,00100
55.57809,25.05084,00100
55.57561,25.04964,00100
55.57500,25.04881,00100
55.57312,25.04790,00100
55.57094,25.04656,00100
55.57065,25.04630,00100
55.56885,25.04431,00100
55.56844,25.04206,00100
55.56816,25.04160,00100
55.56635,25.03981,00100
55.56816,25.03814,00100
55.56827,25.03757,00100
55.56816,25.03739,00100
55.56567,25.03652,00100
55.56436,25.03532,00100
55.56401,25.03307,00100
55.56320,25.03244,00100
55.56108,25.03082,00100
55.56071,25.02966,00100
55.55997,25.02857,00100
55.55846,25.02632,00100
55.55824,25.02597,00100
55.55635,25.02407,00100
55.55576,25.02322,00100
55.55472,25.02182,00100
55.55348,25.01958,00100
55.55357,25.01733,00100
55.55328,25.01684,00100
55.55142,25.01508,00100
55.55328,25.01328,00100
55.55338,25.01283,00100
55.55328,25.01265,00100
55.55080,25.01175,00100
55.54883,25.01058,00100
55.54875,25.00834,00100
55.54832,25.00764,00100
55.54660,25.00608,00100
55.54608,25.00384,00100
55.54584,25.00361,00100
55.54362,25.00159,00100
55.54337,25.00128,00100
55.54129,24.99934,00100
55.54088,24.99862,00100
55.53970,24.99709,00100
55.53841,24.99503,00100
55.53821,24.99484,00100
55.53841,24.99466,00100
55.53883,24.99260,00100
55.53841,24.99223,00100
55.53592,24.99149,00100
55.53398,24.99035,00100
55.53395,24.98810,00100
55.53345,24.98749,00100
55.53104,24.98585,00100
55.53096,24.98573,00100
55.52936,24.98360,00100
55.52849,24.98148,00100
55.52838,24.98135,00100
55.52740,24.97910,00100
55.52670,24.97685,00100
55.52600,24.97668,00100
55.52380,24.97460,00100
55.52385,24.97235,00100
55.52353,24.97173,00100
55.52159,24.97011,00100
55.52122,24.96786,00100
55.52106,24.96765,00100
55.51964,24.96561,00100
55.51938,24.96336,00100
55.51859,24.96161,00100
55.51813,24.96111,00100
55.51797,24.95886,00100
55.51645,24.95661,00100
55.51610,24.95652,00100
55.51392,24.95436,00100
55.51381,24.95212,00100
55.51363,24.95184,00100
55.51117,24.94987,00100
55.51114,24.94981,00100
55.51001,24.94762,00100
55.50867,24.94597,00100
55.50804,24.94537,00100
55.50867,24.94453,00100
55.50890,24.94312,00100
55.50867,24.94227,00100
55.50746,24.94087,00100
55.50829,24.93862,00100
55.50639,24.93637,00100
55.50620,24.93625,00100
55.50414,24.93413,00100
55.50389,24.93188,00100
55.50372,24.93162,00100
55.50124,24.93020,00100
55.50058,24.92963,00100
55.49976,24.92738,00100
55.49937,24.92513,00100
55.49976,24.92288,00100
55.49947,24.92063,00100
55.49973,24.91838,00100
55.50018,24.91614,00100
55.50125,24.91500,00100
55.50372,24.91422,00100
55.50403,24.91389,00100
55.50446,24.91164,00100
55.50618,24.90940,00100
55.50546,24.90715,00100
55.50374,24.90595,00100
55.50275,24.90490,00100
55.50374,24.90371,00100
55.50389,24.90265,00100
55.50374,24.90235,00100
55.50159,24.90040,00100
55.50128,24.89815,00100
55.50127,24.89813,00100
55.49928,24.89590,00100
55.49905,24.89365,00100
55.49878,24.89170,00100
55.49866,24.89140,00100
55.49789,24.88916,00100
55.49879,24.88731,00100
55.49884,24.88691,00100
55.49879,24.88682,00100
55.49631,24.88586,00100
55.49490,24.88466,00100
55.49442,24.88241,00100
55.49384,24.88082,00100
55.49327,24.88016,00100
55.49384,24.87942,00100
55.49414,24.87791,00100
55.49384,24.87678,00100
55.49266,24.87566,00100
55.49155,24.87341,00100
55.49136,24.87303,00100
55.49063,24.87117,00100
55.48993,24.86892,00100
55.49008,24.86667,00100
       </coordinates>
      </LinearRing>
     </outerBoundaryIs>
     <innerBoundaryIs>
      <LinearRing>
       <coordinates>
55.50882,24.91839,00100
55.50868,24.91795,00100
55.50793,24.91839,00100
55.50868,24.91854,00100
55.50882,24.91839,00100
       </coordinates>
      </LinearRing>
     </innerBoundaryIs>
    </Polygon>
    <Polygon>
     <extrude>1</extrude>
     <altitudeMode>clampToGround</altitudeMode>
     <outerBoundaryIs>
      <LinearRing>
       <coordinates>
55.23439,25.08661,00100
55.23552,25.08482,00100
55.23801,25.08442,00100
55.24048,25.08479,00100
55.24162,25.08663,00100
55.24248,25.08888,00100
55.24295,25.08911,00100
55.24544,25.08966,00100
55.24660,25.09113,00100
55.24698,25.09338,00100
55.24744,25.09563,00100
55.24683,25.09788,00100
55.24789,25.09981,00100
55.24843,25.10013,00100
55.24945,25.10238,00100
55.25037,25.10308,00100
55.25183,25.10464,00100
55.25195,25.10689,00100
55.25282,25.10906,00100
55.25296,25.10913,00100
55.25531,25.11080,00100
55.25574,25.11139,00100
55.25755,25.11364,00100
55.25778,25.11380,00100
55.26025,25.11453,00100
55.26149,25.11590,00100
55.26208,25.11815,00100
55.26273,25.11963,00100
55.26347,25.12040,00100
55.26273,25.12113,00100
55.26245,25.12264,00100
55.26273,25.12299,00100
55.26520,25.12300,00100
55.26733,25.12490,00100
55.26717,25.12715,00100
55.26767,25.12780,00100
55.26978,25.12941,00100
55.27016,25.13046,00100
55.27098,25.13166,00100
55.27254,25.13391,00100
55.27263,25.13450,00100
55.27318,25.13616,00100
55.27374,25.13841,00100
55.27509,25.14027,00100
55.27548,25.14066,00100
55.27695,25.14291,00100
55.27757,25.14384,00100
55.27890,25.14516,00100
55.27756,25.14651,00100
55.27737,25.14741,00100
55.27756,25.14759,00100
55.28003,25.14946,00100
55.28038,25.14966,00100
55.28159,25.15191,00100
55.28252,25.15291,00100
55.28381,25.15417,00100
55.28366,25.15641,00100
55.28497,25.15863,00100
55.28503,25.15866,00100
55.28714,25.16092,00100
55.28740,25.16317,00100
55.28745,25.16326,00100
55.28940,25.16542,00100
55.28897,25.16766,00100
55.28993,25.16799,00100
55.29225,25.16992,00100
55.29202,25.17217,00100
55.29240,25.17247,00100
55.29446,25.17442,00100
55.29419,25.17667,00100
55.29488,25.17727,00100
55.29736,25.17848,00100
55.29785,25.17892,00100
55.29860,25.18117,00100
55.29948,25.18342,00100
55.29982,25.18419,00100
55.30142,25.18568,00100
55.30211,25.18793,00100
55.30231,25.18818,00100
55.30417,25.19018,00100
55.30229,25.19239,00100
55.30228,25.19242,00100
55.30229,25.19243,00100
55.30478,25.19314,00100
55.30725,25.19435,00100
55.30762,25.19468,00100
55.30725,25.19533,00100
55.30710,25.19693,00100
55.30725,25.19716,00100
55.30919,25.19918,00100
55.30914,25.20143,00100
55.30972,25.20254,00100
55.31163,25.20368,00100
55.31219,25.20442,00100
55.31316,25.20593,00100
55.31380,25.20818,00100
55.31445,25.21043,00100
55.31467,25.21161,00100
55.31619,25.21268,00100
55.31715,25.21319,00100
55.31879,25.21494,00100
55.31761,25.21718,00100
55.31952,25.21943,00100
55.31961,25.22168,00100
55.31961,25.22168,00100
55.32210,25.22259,00100
55.32352,25.22394,00100
55.32388,25.22618,00100
55.32437,25.22843,00100
55.32449,25.23068,00100
55.32457,25.23119,00100
55.32706,25.23230,00100
55.32776,25.23293,00100
55.32919,25.23519,00100
55.32870,25.23743,00100
55.32947,25.23968,00100
55.32944,25.24193,00100
55.32951,25.24203,00100
55.33200,25.24215,00100
55.33424,25.24419,00100
55.33429,25.24644,00100
55.33443,25.24868,00100
55.33444,25.25093,00100
55.33447,25.25103,00100
55.33694,25.25117,00100
55.33917,25.25319,00100
55.33936,25.25544,00100
55.33937,25.25769,00100
55.33942,25.25993,00100
55.33939,25.26218,00100
55.33940,25.26443,00100
55.33939,25.26668,00100
55.33936,25.26893,00100
55.33932,25.27117,00100
55.33691,25.27336,00100
55.33443,25.27339,00100
55.33194,25.27338,00100
55.32945,25.27336,00100
55.32703,25.27115,00100
55.32700,25.26891,00100
55.32700,25.26666,00100
55.32700,25.26441,00100
55.32698,25.26435,00100
55.32449,25.26435,00100
55.32208,25.26215,00100
55.32204,25.25990,00100
55.32205,25.25766,00100
55.32202,25.25760,00100
55.31953,25.25754,00100
55.31718,25.25540,00100
55.31718,25.25315,00100
55.31706,25.25231,00100
55.31458,25.25179,00100
55.31360,25.25090,00100
55.31310,25.24865,00100
55.31221,25.24640,00100
55.31216,25.24415,00100
55.31212,25.24354,00100
55.30963,25.24366,00100
55.30768,25.24189,00100
55.30734,25.23965,00100
55.30721,25.23739,00100
55.30716,25.23717,00100
55.30467,25.23727,00100
55.30313,25.23514,00100
55.30307,25.23289,00100
55.30228,25.23064,00100
55.30220,25.22921,00100
55.30136,25.22839,00100
55.29971,25.22803,00100
55.29778,25.22614,00100
55.29755,25.22389,00100
55.29726,25.22183,00100
55.29477,25.22223,00100
55.29410,25.22163,00100
55.29306,25.21938,00100
55.29251,25.21713,00100
55.29230,25.21644,00100
55.28981,25.21550,00100
55.28937,25.21488,00100
55.28918,25.21263,00100
55.28766,25.21038,00100
55.28763,25.20813,00100
55.28735,25.20728,00100
55.28487,25.20696,00100
55.28366,25.20587,00100
55.28316,25.20362,00100
55.28256,25.20137,00100
55.28239,25.19935,00100
55.28207,25.19913,00100
55.27991,25.19865,00100
55.27817,25.19687,00100
55.27776,25.19462,00100
55.27759,25.19237,00100
55.27745,25.19168,00100
55.27496,25.19132,00100
55.27412,25.19011,00100
55.27377,25.18787,00100
55.27280,25.18562,00100
55.27274,25.18337,00100
55.27249,25.18264,00100
55.27002,25.18261,00100
55.26837,25.18111,00100
55.26796,25.17886,00100
55.26776,25.17661,00100
55.26756,25.17437,00100
55.26755,25.17416,00100
55.26508,25.17358,00100
55.26370,25.17211,00100
55.26276,25.16986,00100
55.26260,25.16897,00100
55.26149,25.16761,00100
55.26012,25.16703,00100
55.25858,25.16535,00100
55.25833,25.16310,00100
55.25766,25.16179,00100
55.25517,25.16152,00100
55.25443,25.16085,00100
55.25362,25.15860,00100
55.25278,25.15635,00100
55.25270,25.15629,00100
55.25157,25.15634,00100
55.25021,25.15668,00100
55.24985,25.15634,00100
55.24867,25.15409,00100
55.24831,25.15184,00100
55.24774,25.15066,00100
55.24567,25.14959,00100
55.24527,25.14933,00100
55.24390,25.14734,00100
55.24344,25.14509,00100
55.24329,25.14284,00100
55.24280,25.14143,00100
55.24033,25.14093,00100
55.23994,25.14058,00100
55.23901,25.13833,00100
55.23856,25.13608,00100
55.23843,25.13383,00100
55.23819,25.13158,00100
55.23787,25.13130,00100
55.23538,25.13144,00100
55.23398,25.12933,00100
55.23366,25.12708,00100
55.23318,25.12483,00100
55.23293,25.12416,00100
55.23148,25.12258,00100
55.23044,25.12183,00100
55.22935,25.12032,00100
55.22894,25.11807,00100
55.22850,25.11582,00100
55.22798,25.11540,00100
55.22549,25.11415,00100
55.22513,25.11357,00100
55.22522,25.11132,00100
55.22551,25.11091,00100
55.22800,25.10968,00100
55.23047,25.11085,00100
55.23082,25.11133,00100
55.23206,25.11358,00100
55.23296,25.11390,00100
55.23389,25.11359,00100
55.23347,25.11134,00100
55.23323,25.10909,00100
55.23312,25.10684,00100
55.23297,25.10657,00100
55.23093,25.10684,00100
55.23048,25.10736,00100
55.23016,25.10683,00100
55.22815,25.10458,00100
55.22845,25.10233,00100
55.22803,25.10126,00100
55.22675,25.10008,00100
55.22803,25.09890,00100
55.22839,25.09784,00100
55.22803,25.09703,00100
55.22556,25.09601,00100
55.22482,25.09558,00100
55.22400,25.09333,00100
55.22394,25.09108,00100
55.22557,25.08907,00100
55.22806,25.08908,00100
55.23055,25.08913,00100
55.23195,25.09110,00100
55.23268,25.09335,00100
55.23300,25.09347,00100
55.23412,25.09335,00100
55.23550,25.09192,00100
55.23648,25.09336,00100
55.23798,25.09534,00100
55.23898,25.09337,00100
55.23862,25.09112,00100
55.23798,25.09081,00100
55.23550,25.09036,00100
55.23441,25.08886,00100
55.23439,25.08661,00100
       </coordinates>
      </LinearRing>
     </outerBoundaryIs>
     <innerBoundaryIs>
      <LinearRing>
       <coordinates>
55.23871,25.09786,00100
55.23798,25.09587,00100
55.23767,25.09786,00100
55.23796,25.09813,00100
55.23871,25.09786,00100
       </coordinates>
      </LinearRing>
     </innerBoundaryIs>
     <innerBoundaryIs>
      <LinearRing>
       <coordinates>
55.23820,25.11809,00100
55.23792,25.11594,00100
55.23718,25.11809,00100
55.23790,25.11905,00100
55.23820,25.11809,00100
       </coordinates>
      </LinearRing>
     </innerBoundaryIs>
    </Polygon>
   </MultiGeometry>
  </Placemark>
  <Placemark>
   <name>Contour Level: 1.0E-11 mass/m3</name>
   <Snippet maxLines="0"></Snippet>
   <TimeSpan>
    <begin>2025-03-20T15:00:00Z</begin>
    <end>2025-03-20T16:00:00Z</end>
   </TimeSpan>
   <styleUrl>#conc4</styleUrl>
   <MultiGeometry>
    <Polygon>
     <extrude>1</extrude>
     <altitudeMode>clampToGround</altitudeMode>
     <outerBoundaryIs>
      <LinearRing>
       <coordinates>
55.16757,24.62330,00300
55.16759,24.62327,00300
55.16763,24.62330,00300
55.16818,24.62555,00300
55.17006,24.62605,00300
55.17163,24.62781,00300
55.17252,24.62971,00300
55.17291,24.63006,00300
55.17386,24.63231,00300
55.17499,24.63301,00300
55.17596,24.63457,00300
55.17630,24.63681,00300
55.17709,24.63907,00300
55.17743,24.63940,00300
55.17990,24.64105,00300
55.18010,24.64132,00300
55.18120,24.64357,00300
55.18236,24.64554,00300
55.18286,24.64583,00300
55.18234,24.64768,00300
55.18233,24.64807,00300
55.18234,24.64816,00300
55.18430,24.65033,00300
55.18234,24.65219,00300
55.18222,24.65257,00300
55.18234,24.65280,00300
55.18481,24.65323,00300
55.18579,24.65258,00300
55.18729,24.65108,00300
55.18777,24.65258,00300
55.18750,24.65483,00300
55.18727,24.65566,00300
55.18683,24.65708,00300
55.18727,24.65762,00300
55.18805,24.65933,00300
55.18787,24.66158,00300
55.18855,24.66383,00300
55.18874,24.66608,00300
55.18971,24.66740,00300
55.19165,24.66608,00300
55.19218,24.66594,00300
55.19279,24.66609,00300
55.19466,24.66719,00300
55.19531,24.66834,00300
55.19563,24.67059,00300
55.19576,24.67284,00300
55.19598,24.67509,00300
55.19597,24.67734,00300
55.19687,24.67958,00300
55.19708,24.68007,00300
55.19901,24.68184,00300
55.19955,24.68227,00300
55.20067,24.68409,00300
55.20158,24.68634,00300
55.20186,24.68859,00300
55.20201,24.68915,00300
55.20308,24.69084,00300
55.20361,24.69309,00300
55.20447,24.69347,00300
55.20613,24.69535,00300
55.20663,24.69760,00300
55.20692,24.69814,00300
55.20862,24.69985,00300
55.20940,24.70108,00300
55.21002,24.70210,00300
55.21057,24.70435,00300
55.21114,24.70660,00300
55.21185,24.70824,00300
55.21231,24.70885,00300
55.21431,24.71089,00300
55.21449,24.71111,00300
55.21538,24.71336,00300
55.21593,24.71561,00300
55.21606,24.71785,00300
55.21677,24.72000,00300
55.21684,24.72010,00300
55.21677,24.72029,00300
55.21646,24.72235,00300
55.21675,24.72308,00300
55.21809,24.72461,00300
55.21848,24.72686,00300
55.21921,24.72858,00300
55.21962,24.72910,00300
55.22110,24.73136,00300
55.22168,24.73358,00300
55.22168,24.73361,00300
55.22327,24.73586,00300
55.22414,24.73809,00300
55.22415,24.73811,00300
55.22444,24.74036,00300
55.22522,24.74261,00300
55.22543,24.74486,00300
55.22574,24.74711,00300
55.22658,24.74874,00300
55.22710,24.74936,00300
55.22852,24.75161,00300
55.22891,24.75386,00300
55.22903,24.75469,00300
55.22934,24.75611,00300
55.22995,24.75836,00300
55.23088,24.76061,00300
55.23111,24.76286,00300
55.23148,24.76404,00300
55.23206,24.76511,00300
55.23148,24.76703,00300
55.23145,24.76735,00300
55.23148,24.76744,00300
55.23309,24.76961,00300
55.23384,24.77185,00300
55.23393,24.77218,00300
55.23505,24.77411,00300
55.23611,24.77636,00300
55.23639,24.77744,00300
55.23689,24.77861,00300
55.23749,24.78086,00300
55.23758,24.78311,00300
55.23860,24.78535,00300
55.23885,24.78600,00300
55.24039,24.78761,00300
55.24132,24.78893,00300
55.24187,24.78986,00300
55.24191,24.79211,00300
55.24294,24.79436,00300
55.24303,24.79661,00300
55.24347,24.79885,00300
55.24377,24.79942,00300
55.24573,24.80111,00300
55.24623,24.80197,00300
55.24709,24.80336,00300
55.24805,24.80561,00300
55.24838,24.80786,00300
55.24863,24.81011,00300
55.24869,24.81042,00300
55.24988,24.81236,00300
55.25021,24.81461,00300
55.25055,24.81686,00300
55.25053,24.81911,00300
55.25009,24.82135,00300
55.24963,24.82360,00300
55.24866,24.82461,00300
55.24817,24.82585,00300
55.24678,24.82809,00300
55.24615,24.82982,00300
55.24586,24.83034,00300
55.24368,24.83110,00300
55.24120,24.83153,00300
55.23872,24.83161,00300
55.23624,24.83228,00300
55.23376,24.83212,00300
55.23129,24.83250,00300
55.22882,24.83157,00300
55.22633,24.83095,00300
55.22546,24.83029,00300
55.22456,24.82804,00300
55.22388,24.82699,00300
55.22214,24.82578,00300
55.22141,24.82509,00300
55.22009,24.82353,00300
55.21953,24.82128,00300
55.21927,24.81903,00300
55.21924,24.81678,00300
55.21895,24.81573,00300
55.21820,24.81454,00300
55.21896,24.81307,00300
55.21906,24.81229,00300
55.21896,24.81206,00300
55.21692,24.81003,00300
55.21649,24.80847,00300
55.21606,24.80779,00300
55.21469,24.80553,00300
55.21442,24.80328,00300
55.21404,24.80233,00300
55.21298,24.80103,00300
55.21231,24.79878,00300
55.21173,24.79653,00300
55.21158,24.79612,00300
55.21033,24.79428,00300
55.20961,24.79203,00300
55.20912,24.79096,00300
55.20836,24.78978,00300
55.20874,24.78753,00300
55.20709,24.78528,00300
55.20667,24.78438,00300
55.20581,24.78303,00300
55.20462,24.78078,00300
55.20421,24.77909,00300
55.20396,24.77853,00300
55.20294,24.77628,00300
55.20250,24.77402,00300
55.20209,24.77178,00300
55.20175,24.77086,00300
55.20113,24.76953,00300
55.20035,24.76727,00300
55.19977,24.76503,00300
55.19994,24.76278,00300
55.19931,24.76160,00300
55.19833,24.76053,00300
55.19797,24.75828,00300
55.19713,24.75603,00300
55.19685,24.75529,00300
55.19553,24.75377,00300
55.19443,24.75152,00300
55.19438,24.75137,00300
55.19380,24.74928,00300
55.19405,24.74703,00300
55.19281,24.74477,00300
55.19231,24.74253,00300
55.19206,24.74027,00300
55.19196,24.73984,00300
55.19131,24.73803,00300
55.19113,24.73578,00300
55.19058,24.73353,00300
55.19006,24.73128,00300
55.18950,24.73034,00300
55.18753,24.72902,00300
55.18704,24.72832,00300
55.18637,24.72677,00300
55.18568,24.72452,00300
55.18532,24.72227,00300
55.18459,24.72010,00300
55.18452,24.72002,00300
55.18439,24.71777,00300
55.18246,24.71552,00300
55.18213,24.71523,00300
55.18086,24.71327,00300
55.18080,24.71102,00300
55.18092,24.70877,00300
55.18062,24.70652,00300
55.17975,24.70427,00300
55.17969,24.70348,00300
55.17950,24.70202,00300
55.17796,24.69977,00300
55.17723,24.69899,00300
55.17641,24.69752,00300
55.17673,24.69527,00300
55.17621,24.69302,00300
55.17583,24.69077,00300
55.17479,24.68874,00300
55.17444,24.68852,00300
55.17297,24.68627,00300
55.17233,24.68551,00300
55.17151,24.68401,00300
55.17128,24.68176,00300
55.17227,24.67952,00300
55.17207,24.67727,00300
55.17236,24.67619,00300
55.17255,24.67502,00300
55.17236,24.67388,00300
55.17203,24.67278,00300
55.17146,24.67052,00300
55.17055,24.66828,00300
55.16992,24.66644,00300
55.16972,24.66603,00300
55.16954,24.66377,00300
55.16911,24.66153,00300
55.16853,24.65928,00300
55.16856,24.65703,00300
55.16766,24.65478,00300
55.16748,24.65449,00300
55.16638,24.65252,00300
55.16707,24.65028,00300
55.16727,24.64803,00300
55.16628,24.64578,00300
55.16507,24.64353,00300
55.16505,24.64333,00300
55.16473,24.64128,00300
55.16483,24.63903,00300
55.16507,24.63827,00300
55.16571,24.63679,00300
55.16727,24.63454,00300
55.16754,24.63230,00300
55.16748,24.63005,00300
55.16663,24.62780,00300
55.16751,24.62555,00300
55.16757,24.62330,00300
       </coordinates>
      </LinearRing>
     </outerBoundaryIs>
    </Polygon>
    <Polygon>
     <extrude>1</extrude>
     <altitudeMode>clampToGround</altitudeMode>
     <outerBoundaryIs>
      <LinearRing>
       <coordinates>
55.50505,24.89366,00300
55.50623,24.89216,00300
55.50870,24.89154,00300
55.51001,24.89366,00300
55.51096,24.89591,00300
55.51106,24.89816,00300
55.51117,24.89862,00300
55.51257,24.90041,00300
55.51366,24.90128,00300
55.51520,24.90265,00300
55.51613,24.90361,00300
55.51756,24.90490,00300
55.51862,24.90548,00300
55.52014,24.90715,00300
55.52109,24.90913,00300
55.52127,24.90940,00300
55.52167,24.91165,00300
55.52280,24.91390,00300
55.52356,24.91437,00300
55.52603,24.91544,00300
55.52682,24.91615,00300
55.52786,24.91840,00300
55.52852,24.91909,00300
55.52969,24.91840,00300
55.53101,24.91620,00300
55.53104,24.91615,00300
55.53348,24.91538,00300
55.53462,24.91615,00300
55.53503,24.91840,00300
55.53348,24.91972,00300
55.53137,24.92065,00300
55.53101,24.92290,00300
55.53348,24.92463,00300
55.53595,24.92374,00300
55.53836,24.92514,00300
55.53842,24.92517,00300
55.53973,24.92739,00300
55.53932,24.92964,00300
55.53842,24.93040,00300
55.53738,24.93189,00300
55.53842,24.93280,00300
55.54091,24.93224,00300
55.54338,24.93231,00300
55.54352,24.93414,00300
55.54468,24.93639,00300
55.54538,24.93864,00300
55.54587,24.93941,00300
55.54701,24.94089,00300
55.54802,24.94314,00300
55.54814,24.94538,00300
55.54834,24.94643,00300
55.54903,24.94763,00300
55.55081,24.94951,00300
55.55103,24.94988,00300
55.55182,24.95213,00300
55.55240,24.95438,00300
55.55267,24.95662,00300
55.55301,24.95888,00300
55.55330,24.95936,00300
55.55536,24.96112,00300
55.55577,24.96148,00300
55.55713,24.96337,00300
55.55826,24.96558,00300
55.55858,24.96562,00300
55.56073,24.96590,00300
55.56293,24.96787,00300
55.56322,24.96826,00300
55.56569,24.96982,00300
55.56586,24.97012,00300
55.56673,24.97237,00300
55.56818,24.97371,00300
55.57065,24.97429,00300
55.57091,24.97462,00300
55.57144,24.97687,00300
55.57195,24.97911,00300
55.57266,24.98136,00300
55.57314,24.98337,00300
55.57561,24.98290,00300
55.57686,24.98361,00300
55.57809,24.98440,00300
55.57899,24.98586,00300
55.58005,24.98811,00300
55.58057,24.98941,00300
55.58089,24.99035,00300
55.58206,24.99260,00300
55.58250,24.99485,00300
55.58305,24.99609,00300
55.58386,24.99710,00300
55.58554,24.99917,00300
55.58563,24.99935,00300
55.58644,25.00159,00300
55.58722,25.00384,00300
55.58801,25.00535,00300
55.58922,25.00609,00300
55.59048,25.00715,00300
55.59129,25.00834,00300
55.59256,25.01059,00300
55.59242,25.01284,00300
55.59297,25.01380,00300
55.59457,25.01509,00300
55.59439,25.01733,00300
55.59546,25.01784,00300
55.59753,25.01958,00300
55.59738,25.02183,00300
55.59793,25.02312,00300
55.59920,25.02408,00300
55.60042,25.02632,00300
55.60043,25.02633,00300
55.60130,25.02857,00300
55.60165,25.03082,00300
55.60153,25.03307,00300
55.60204,25.03532,00300
55.60159,25.03757,00300
55.60077,25.03981,00300
55.60042,25.04023,00300
55.59793,25.04178,00300
55.59775,25.04206,00300
55.59793,25.04366,00300
55.59843,25.04431,00300
55.59840,25.04656,00300
55.59793,25.04755,00300
55.59546,25.04789,00300
55.59297,25.04692,00300
55.59050,25.04826,00300
55.58801,25.04769,00300
55.58554,25.04830,00300
55.58305,25.04746,00300
55.58057,25.04804,00300
55.57825,25.04656,00300
55.57809,25.04652,00300
55.57726,25.04656,00300
55.57561,25.04691,00300
55.57518,25.04656,00300
55.57312,25.04440,00300
55.57303,25.04431,00300
55.57312,25.04391,00300
55.57321,25.04206,00300
55.57312,25.04194,00300
55.57065,25.04064,00300
55.57004,25.03981,00300
55.56921,25.03757,00300
55.56816,25.03563,00300
55.56776,25.03532,00300
55.56816,25.03448,00300
55.56836,25.03307,00300
55.56816,25.03272,00300
55.56573,25.03082,00300
55.56567,25.03071,00300
55.56429,25.02857,00300
55.56345,25.02633,00300
55.56320,25.02579,00300
55.56171,25.02407,00300
55.56073,25.02282,00300
55.55997,25.02183,00300
55.55824,25.01976,00300
55.55804,25.01958,00300
55.55824,25.01896,00300
55.55838,25.01733,00300
55.55824,25.01713,00300
55.55576,25.01605,00300
55.55511,25.01508,00300
55.55460,25.01283,00300
55.55338,25.01058,00300
55.55328,25.00957,00300
55.55301,25.00834,00300
55.55086,25.00609,00300
55.55080,25.00603,00300
55.54953,25.00384,00300
55.54906,25.00159,00300
55.54832,25.00073,00300
55.54620,24.99934,00300
55.54584,24.99884,00300
55.54485,24.99709,00300
55.54337,24.99492,00300
55.54327,24.99484,00300
55.54337,24.99357,00300
55.54340,24.99260,00300
55.54337,24.99255,00300
55.54089,24.99073,00300
55.54044,24.99035,00300
55.53897,24.98810,00300
55.53841,24.98727,00300
55.53662,24.98585,00300
55.53592,24.98536,00300
55.53468,24.98360,00300
55.53404,24.98135,00300
55.53345,24.98078,00300
55.53128,24.97910,00300
55.53098,24.97863,00300
55.53021,24.97685,00300
55.52896,24.97460,00300
55.52888,24.97235,00300
55.52849,24.97149,00300
55.52721,24.97011,00300
55.52602,24.96790,00300
55.52600,24.96786,00300
55.52594,24.96561,00300
55.52573,24.96336,00300
55.52522,24.96111,00300
55.52353,24.96013,00300
55.52187,24.95887,00300
55.52106,24.95667,00300
55.52104,24.95662,00300
55.52106,24.95653,00300
55.52194,24.95437,00300
55.52106,24.95327,00300
55.52013,24.95212,00300
55.51859,24.95147,00300
55.51636,24.94987,00300
55.51611,24.94955,00300
55.51523,24.94762,00300
55.51413,24.94537,00300
55.51363,24.94408,00300
55.51308,24.94312,00300
55.51247,24.94087,00300
55.51212,24.93863,00300
55.51144,24.93637,00300
55.51115,24.93586,00300
55.51041,24.93413,00300
55.50995,24.93188,00300
55.50999,24.92963,00300
55.50868,24.92877,00300
55.50815,24.92738,00300
55.50868,24.92701,00300
55.50909,24.92738,00300
55.51115,24.92941,00300
55.51364,24.92873,00300
55.51451,24.92739,00300
55.51471,24.92514,00300
55.51518,24.92289,00300
55.51460,24.92064,00300
55.51404,24.91839,00300
55.51364,24.91700,00300
55.51312,24.91614,00300
55.51190,24.91389,00300
55.51117,24.91244,00300
55.51079,24.91165,00300
55.51019,24.90940,00300
55.51004,24.90715,00300
55.50870,24.90503,00300
55.50845,24.90490,00300
55.50632,24.90265,00300
55.50623,24.90252,00300
55.50533,24.90040,00300
55.50488,24.89815,00300
55.50475,24.89591,00300
55.50505,24.89366,00300
       </coordinates>
      </LinearRing>
     </outerBoundaryIs>
    </Polygon>
    <Polygon>
     <extrude>1</extrude>
     <altitudeMode>clampToGround</altitudeMode>
     <outerBoundaryIs>
      <LinearRing>
       <coordinates>
55.23169,25.09784,00300
55.23300,25.09620,00300
55.23457,25.09785,00300
55.23341,25.10010,00300
55.23547,25.10124,00300
55.23795,25.10129,00300
55.23892,25.10236,00300
55.24011,25.10461,00300
55.24042,25.10518,00300
55.24088,25.10686,00300
55.24115,25.10911,00300
55.24289,25.11015,00300
55.24504,25.11136,00300
55.24536,25.11202,00300
55.24612,25.11362,00300
55.24785,25.11573,00300
55.24832,25.11587,00300
55.25032,25.11687,00300
55.25227,25.11588,00300
55.25281,25.11576,00300
55.25302,25.11588,00300
55.25478,25.11813,00300
55.25279,25.12035,00300
55.25276,25.12037,00300
55.25153,25.12262,00300
55.25278,25.12393,00300
55.25485,25.12263,00300
55.25528,25.12179,00300
55.25775,25.12123,00300
55.25897,25.12264,00300
55.26024,25.12439,00300
55.26050,25.12489,00300
55.26219,25.12714,00300
55.26271,25.12758,00300
55.26476,25.12939,00300
55.26518,25.12979,00300
55.26620,25.13165,00300
55.26712,25.13390,00300
55.26765,25.13456,00300
55.26944,25.13615,00300
55.27014,25.13712,00300
55.27084,25.13840,00300
55.27200,25.14065,00300
55.27206,25.14290,00300
55.27260,25.14375,00300
55.27444,25.14515,00300
55.27509,25.14683,00300
55.27533,25.14740,00300
55.27750,25.14966,00300
55.27734,25.15190,00300
55.27754,25.15249,00300
55.27942,25.15416,00300
55.28003,25.15506,00300
55.28090,25.15641,00300
55.28192,25.15866,00300
55.28250,25.15986,00300
55.28346,25.16091,00300
55.28374,25.16316,00300
55.28497,25.16371,00300
55.28622,25.16541,00300
55.28674,25.16766,00300
55.28745,25.16893,00300
55.28860,25.16991,00300
55.28799,25.17216,00300
55.28992,25.17301,00300
55.29155,25.17441,00300
55.29192,25.17666,00300
55.29239,25.17805,00300
55.29335,25.17891,00300
55.29486,25.18067,00300
55.29532,25.18117,00300
55.29662,25.18342,00300
55.29733,25.18475,00300
55.29817,25.18567,00300
55.29733,25.18772,00300
55.29732,25.18792,00300
55.29733,25.18794,00300
55.29980,25.18935,00300
55.30054,25.19017,00300
55.30121,25.19242,00300
55.30229,25.19361,00300
55.30362,25.19467,00300
55.30412,25.19692,00300
55.30476,25.19765,00300
55.30594,25.19917,00300
55.30667,25.20142,00300
55.30724,25.20313,00300
55.30769,25.20367,00300
55.30943,25.20592,00300
55.30971,25.20647,00300
55.31102,25.20818,00300
55.31219,25.21006,00300
55.31248,25.21043,00300
55.31219,25.21121,00300
55.31209,25.21268,00300
55.31218,25.21283,00300
55.31453,25.21493,00300
55.31467,25.21539,00300
55.31583,25.21718,00300
55.31714,25.21861,00300
55.31799,25.21943,00300
55.31750,25.22168,00300
55.31934,25.22393,00300
55.31961,25.22458,00300
55.32108,25.22618,00300
55.32208,25.22781,00300
55.32257,25.22843,00300
55.32385,25.23068,00300
55.32393,25.23293,00300
55.32455,25.23368,00300
55.32654,25.23518,00300
55.32660,25.23743,00300
55.32704,25.23774,00300
55.32906,25.23968,00300
55.32874,25.24193,00300
55.32951,25.24286,00300
55.33200,25.24406,00300
55.33214,25.24418,00300
55.33253,25.24644,00300
55.33401,25.24868,00300
55.33423,25.25093,00300
55.33447,25.25191,00300
55.33690,25.25319,00300
55.33694,25.25321,00300
55.33875,25.25544,00300
55.33890,25.25769,00300
55.33928,25.25993,00300
55.33916,25.26218,00300
55.33929,25.26443,00300
55.33917,25.26668,00300
55.33899,25.26893,00300
55.33875,25.27117,00300
55.33691,25.27283,00300
55.33443,25.27314,00300
55.33194,25.27312,00300
55.32945,25.27294,00300
55.32748,25.27115,00300
55.32727,25.26891,00300
55.32713,25.26666,00300
55.32707,25.26441,00300
55.32698,25.26381,00300
55.32449,25.26388,00300
55.32260,25.26215,00300
55.32220,25.25990,00300
55.32224,25.25766,00300
55.32202,25.25710,00300
55.31955,25.25653,00300
55.31830,25.25540,00300
55.31822,25.25315,00300
55.31726,25.25090,00300
55.31708,25.24892,00300
55.31679,25.24865,00300
55.31459,25.24786,00300
55.31316,25.24640,00300
55.31265,25.24415,00300
55.31233,25.24190,00300
55.31212,25.24144,00300
55.30963,25.24037,00300
55.30914,25.23965,00300
55.30798,25.23740,00300
55.30734,25.23515,00300
55.30716,25.23405,00300
55.30621,25.23290,00300
55.30469,25.23202,00300
55.30334,25.23064,00300
55.30307,25.22840,00300
55.30235,25.22615,00300
55.30222,25.22580,00300
55.29996,25.22389,00300
55.29973,25.22363,00300
55.29820,25.22164,00300
55.29730,25.21939,00300
55.29726,25.21920,00300
55.29495,25.21714,00300
55.29477,25.21703,00300
55.29327,25.21489,00300
55.29292,25.21264,00300
55.29230,25.21162,00300
55.29060,25.21038,00300
55.28995,25.20814,00300
55.28983,25.20801,00300
55.28804,25.20588,00300
55.28735,25.20404,00300
55.28688,25.20363,00300
55.28488,25.20204,00300
55.28432,25.20138,00300
55.28343,25.19913,00300
55.28293,25.19688,00300
55.28241,25.19590,00300
55.28038,25.19463,00300
55.27992,25.19403,00300
55.27901,25.19238,00300
55.27817,25.19012,00300
55.27774,25.18788,00300
55.27747,25.18698,00300
55.27585,25.18563,00300
55.27498,25.18371,00300
55.27490,25.18337,00300
55.27332,25.18112,00300
55.27251,25.18007,00300
55.27087,25.17887,00300
55.27003,25.17691,00300
55.26990,25.17662,00300
55.26921,25.17437,00300
55.26872,25.17212,00300
55.26758,25.16987,00300
55.26756,25.16985,00300
55.26575,25.16762,00300
55.26509,25.16672,00300
55.26389,25.16537,00300
55.26262,25.16357,00300
55.26218,25.16311,00300
55.26051,25.16086,00300
55.26013,25.16052,00300
55.25854,25.15861,00300
55.25789,25.15636,00300
55.25766,25.15585,00300
55.25565,25.15411,00300
55.25519,25.15359,00300
55.25348,25.15185,00300
55.25385,25.14960,00300
55.25345,25.14735,00300
55.25314,25.14511,00300
55.25302,25.14286,00300
55.25273,25.14230,00300
55.25125,25.14285,00300
55.25024,25.14361,00300
55.24777,25.14410,00300
55.24669,25.14285,00300
55.24719,25.14060,00300
55.24777,25.13946,00300
55.24818,25.13835,00300
55.24817,25.13610,00300
55.24837,25.13386,00300
55.24835,25.13161,00300
55.24780,25.13071,00300
55.24602,25.12935,00300
55.24568,25.12711,00300
55.24533,25.12539,00300
55.24518,25.12486,00300
55.24458,25.12261,00300
55.24294,25.12035,00300
55.24286,25.12033,00300
55.24106,25.11810,00300
55.24088,25.11585,00300
55.24063,25.11360,00300
55.24040,25.11236,00300
55.24020,25.11135,00300
55.23793,25.11042,00300
55.23593,25.10909,00300
55.23544,25.10775,00300
55.23517,25.10685,00300
55.23477,25.10460,00300
55.23299,25.10266,00300
55.23267,25.10234,00300
55.23289,25.10010,00300
55.23169,25.09784,00300
       </coordinates>
      </LinearRing>
     </outerBoundaryIs>
    </Polygon>
   </MultiGeometry>
  </Placemark>
  <Placemark>
   <name>Contour Level: 1.0E-10 mass/m3</name>
   <Snippet maxLines="0"></Snippet>
   <TimeSpan>
    <begin>2025-03-20T15:00:00Z</begin>
    <end>2025-03-20T16:00:00Z</end>
   </TimeSpan>
   <styleUrl>#conc3</styleUrl>
   <MultiGeometry>
    <Polygon>
     <extrude>1</extrude>
     <altitudeMode>clampToGround</altitudeMode>
     <outerBoundaryIs>
      <LinearRing>
       <coordinates>
55.22116,24.76733,00500
55.22157,24.76668,00500
55.22404,24.76676,00500
55.22440,24.76734,00500
55.22424,24.76958,00500
55.22485,24.77184,00500
55.22475,24.77408,00500
55.22403,24.77528,00500
55.22156,24.77502,00500
55.22096,24.77407,00500
55.22064,24.77182,00500
55.22107,24.76958,00500
55.22116,24.76733,00500
       </coordinates>
      </LinearRing>
     </outerBoundaryIs>
    </Polygon>
    <Polygon>
     <extrude>1</extrude>
     <altitudeMode>clampToGround</altitudeMode>
     <outerBoundaryIs>
      <LinearRing>
       <coordinates>
55.22121,24.78307,00500
55.22153,24.78234,00500
55.22400,24.78136,00500
55.22493,24.78308,00500
55.22647,24.78452,00500
55.22769,24.78533,00500
55.22894,24.78582,00500
55.23018,24.78758,00500
55.23059,24.78983,00500
55.23141,24.79056,00500
55.23389,24.79193,00500
55.23398,24.79209,00500
55.23409,24.79434,00500
55.23575,24.79659,00500
55.23634,24.79701,00500
55.23767,24.79884,00500
55.23882,24.79978,00500
55.23927,24.80110,00500
55.23996,24.80334,00500
55.24115,24.80560,00500
55.24127,24.80579,00500
55.24324,24.80785,00500
55.24329,24.81009,00500
55.24373,24.81056,00500
55.24454,24.81235,00500
55.24432,24.81460,00500
55.24481,24.81684,00500
55.24451,24.81909,00500
55.24385,24.82134,00500
55.24370,24.82238,00500
55.24123,24.82242,00500
55.24019,24.82133,00500
55.23875,24.81963,00500
55.23627,24.82022,00500
55.23528,24.82132,00500
55.23380,24.82340,00500
55.23132,24.82268,00500
55.22884,24.82145,00500
55.22871,24.82130,00500
55.22636,24.81971,00500
55.22601,24.81905,00500
55.22534,24.81680,00500
55.22455,24.81455,00500
55.22443,24.81230,00500
55.22392,24.81117,00500
55.22314,24.81005,00500
55.22180,24.80780,00500
55.22191,24.80555,00500
55.22147,24.80464,00500
55.22113,24.80330,00500
55.22110,24.80105,00500
55.22096,24.79880,00500
55.22072,24.79655,00500
55.21901,24.79462,00500
55.21878,24.79430,00500
55.21753,24.79205,00500
55.21858,24.78980,00500
55.21857,24.78756,00500
55.21904,24.78641,00500
55.22124,24.78531,00500
55.22121,24.78307,00500
       </coordinates>
      </LinearRing>
     </outerBoundaryIs>
     <innerBoundaryIs>
      <LinearRing>
       <coordinates>
55.22443,24.78982,00500
55.22398,24.78895,00500
55.22151,24.78916,00500
55.22131,24.78981,00500
55.22064,24.79206,00500
55.22041,24.79431,00500
55.22150,24.79481,00500
55.22397,24.79448,00500
55.22455,24.79432,00500
55.22632,24.79207,00500
55.22443,24.78982,00500
       </coordinates>
      </LinearRing>
     </innerBoundaryIs>
    </Polygon>
    <Polygon>
     <extrude>1</extrude>
     <altitudeMode>clampToGround</altitudeMode>
     <outerBoundaryIs>
      <LinearRing>
       <coordinates>
55.55591,24.98810,00500
55.55826,24.98604,00500
55.56073,24.98770,00500
55.56128,24.98810,00500
55.56165,24.99035,00500
55.56236,24.99260,00500
55.56320,24.99328,00500
55.56569,24.99422,00500
55.56601,24.99485,00500
55.56738,24.99710,00500
55.56818,24.99891,00500
55.56850,24.99935,00500
55.57065,25.00106,00500
55.57098,25.00159,00500
55.57214,25.00384,00500
55.57312,25.00479,00500
55.57532,25.00609,00500
55.57561,25.00638,00500
55.57700,25.00834,00500
55.57794,25.01059,00500
55.57809,25.01114,00500
55.58057,25.01183,00500
55.58185,25.01284,00500
55.58295,25.01509,00500
55.58305,25.01527,00500
55.58554,25.01702,00500
55.58801,25.01728,00500
55.58804,25.01733,00500
55.58813,25.01958,00500
55.59038,25.02183,00500
55.59050,25.02192,00500
55.59297,25.02345,00500
55.59322,25.02408,00500
55.59445,25.02633,00500
55.59488,25.02857,00500
55.59505,25.03082,00500
55.59515,25.03307,00500
55.59523,25.03532,00500
55.59532,25.03757,00500
55.59442,25.03981,00500
55.59305,25.04206,00500
55.59297,25.04216,00500
55.59050,25.04274,00500
55.58801,25.04292,00500
55.58554,25.04238,00500
55.58499,25.04206,00500
55.58305,25.04121,00500
55.58057,25.04144,00500
55.57809,25.04068,00500
55.57732,25.03981,00500
55.57578,25.03757,00500
55.57561,25.03714,00500
55.57494,25.03532,00500
55.57416,25.03307,00500
55.57312,25.03138,00500
55.57277,25.03082,00500
55.57182,25.02857,00500
55.57083,25.02633,00500
55.57065,25.02594,00500
55.56972,25.02408,00500
55.56912,25.02183,00500
55.56816,25.02056,00500
55.56714,25.01958,00500
55.56622,25.01733,00500
55.56583,25.01509,00500
55.56569,25.01402,00500
55.56551,25.01283,00500
55.56461,25.01059,00500
55.56393,25.00834,00500
55.56320,25.00638,00500
55.56302,25.00609,00500
55.56143,25.00384,00500
55.56073,25.00179,00500
55.56067,25.00159,00500
55.55972,24.99934,00500
55.55936,24.99710,00500
55.55824,24.99579,00500
55.55710,24.99484,00500
55.55588,24.99260,00500
55.55577,24.99085,00500
55.55571,24.99035,00500
55.55577,24.98928,00500
55.55591,24.98810,00500
       </coordinates>
      </LinearRing>
     </outerBoundaryIs>
    </Polygon>
    <Polygon>
     <extrude>1</extrude>
     <altitudeMode>clampToGround</altitudeMode>
     <outerBoundaryIs>
      <LinearRing>
       <coordinates>
55.28122,25.17665,00500
55.28246,25.17469,00500
55.28336,25.17665,00500
55.28493,25.17856,00500
55.28516,25.17890,00500
55.28741,25.18032,00500
55.28825,25.18115,00500
55.28976,25.18340,00500
55.28989,25.18363,00500
55.29082,25.18566,00500
55.29198,25.18791,00500
55.29236,25.18833,00500
55.29390,25.19016,00500
55.29483,25.19150,00500
55.29521,25.19241,00500
55.29633,25.19466,00500
55.29732,25.19588,00500
55.29829,25.19691,00500
55.29959,25.19916,00500
55.29979,25.19938,00500
55.30075,25.20141,00500
55.30142,25.20366,00500
55.30226,25.20452,00500
55.30417,25.20591,00500
55.30475,25.20655,00500
55.30553,25.20817,00500
55.30676,25.21042,00500
55.30708,25.21267,00500
55.30722,25.21285,00500
55.30969,25.21447,00500
55.30992,25.21492,00500
55.31100,25.21717,00500
55.31212,25.21942,00500
55.31216,25.21953,00500
55.31396,25.22167,00500
55.31465,25.22240,00500
55.31549,25.22392,00500
55.31660,25.22617,00500
55.31689,25.22842,00500
55.31711,25.22873,00500
55.31960,25.22991,00500
55.32030,25.23068,00500
55.32114,25.23293,00500
55.32208,25.23489,00500
55.32236,25.23518,00500
55.32207,25.23596,00500
55.32190,25.23742,00500
55.32207,25.23771,00500
55.32455,25.23877,00500
55.32568,25.23968,00500
55.32642,25.24193,00500
55.32703,25.24357,00500
55.32764,25.24418,00500
55.32904,25.24643,00500
55.32950,25.24685,00500
55.33110,25.24868,00500
55.33199,25.25062,00500
55.33215,25.25093,00500
55.33205,25.25318,00500
55.33446,25.25505,00500
55.33495,25.25543,00500
55.33640,25.25768,00500
55.33694,25.25857,00500
55.33804,25.25993,00500
55.33693,25.26202,00500
55.33691,25.26218,00500
55.33693,25.26230,00500
55.33823,25.26443,00500
55.33707,25.26668,00500
55.33691,25.26699,00500
55.33652,25.26892,00500
55.33443,25.27098,00500
55.33194,25.27096,00500
55.32961,25.26891,00500
55.32947,25.26844,00500
55.32854,25.26666,00500
55.32793,25.26441,00500
55.32777,25.26216,00500
55.32700,25.26170,00500
55.32451,25.26075,00500
55.32388,25.25991,00500
55.32422,25.25766,00500
55.32263,25.25541,00500
55.32204,25.25367,00500
55.32158,25.25316,00500
55.31955,25.25094,00500
55.31952,25.25091,00500
55.31894,25.24866,00500
55.31812,25.24641,00500
55.31708,25.24521,00500
55.31581,25.24416,00500
55.31496,25.24191,00500
55.31461,25.24120,00500
55.31357,25.23965,00500
55.31296,25.23740,00500
55.31213,25.23639,00500
55.31088,25.23516,00500
55.31009,25.23290,00500
55.30966,25.23186,00500
55.30865,25.23065,00500
55.30717,25.22867,00500
55.30693,25.22840,00500
55.30594,25.22615,00500
55.30478,25.22390,00500
55.30470,25.22353,00500
55.30399,25.22165,00500
55.30223,25.21980,00500
55.30177,25.21940,00500
55.30057,25.21715,00500
55.29974,25.21530,00500
55.29947,25.21490,00500
55.29872,25.21265,00500
55.29727,25.21072,00500
55.29709,25.21040,00500
55.29549,25.20815,00500
55.29480,25.20641,00500
55.29443,25.20589,00500
55.29233,25.20417,00500
55.29181,25.20364,00500
55.29114,25.20139,00500
55.28986,25.19918,00500
55.28981,25.19914,00500
55.28845,25.19689,00500
55.28738,25.19512,00500
55.28717,25.19464,00500
55.28590,25.19239,00500
55.28525,25.19014,00500
55.28491,25.18911,00500
55.28397,25.18789,00500
55.28346,25.18564,00500
55.28244,25.18462,00500
55.28177,25.18339,00500
55.28165,25.18114,00500
55.28168,25.17889,00500
55.28122,25.17665,00500
       </coordinates>
      </LinearRing>
     </outerBoundaryIs>
    </Polygon>
   </MultiGeometry>
  </Placemark>
  <Placemark>
   <name>Contour Level: 1.0E-09 mass/m3</name>
   <Snippet maxLines="0"></Snippet>
   <TimeSpan>
    <begin>2025-03-20T15:00:00Z</begin>
    <end>2025-03-20T16:00:00Z</end>
   </TimeSpan>
   <styleUrl>#conc2</styleUrl>
   <MultiGeometry>
    <Polygon>
     <extrude>1</extrude>
     <altitudeMode>clampToGround</altitudeMode>
     <outerBoundaryIs>
      <LinearRing>
       <coordinates>
55.33145,25.26217,00700
55.33195,25.26140,00700
55.33369,25.26217,00700
55.33195,25.26320,00700
55.33145,25.26217,00700
       </coordinates>
      </LinearRing>
     </outerBoundaryIs>
    </Polygon>
   </MultiGeometry>
  </Placemark>
  <Placemark>
   <name>Maximum Value Grid Cell</name>
   <Snippet maxLines="0"></Snippet>
   <description><![CDATA[<pre>
LAT:   25.2622 LON:   55.3320
Value: 1.2E-09
      The square represents the location
      of maximum concentration and the
      size of the square represents the
      concentration grid cell size.
    </pre>]]>
   </description>
   <TimeSpan>
    <begin>2025-03-20T15:00:00Z</begin>
    <end>2025-03-20T16:00:00Z</end>
   </TimeSpan>
   <styleUrl>#maxv</styleUrl>
   <Polygon>
    <extrude>1</extrude>
    <altitudeMode>clampToGround</altitudeMode>
    <outerBoundaryIs>
     <LinearRing>
      <coordinates>
        55.32948,25.25992,00100
        55.33444,25.25993,00100
        55.33444,25.26443,00100
        55.32947,25.26442,00100
        55.32948,25.25992,00100
      </coordinates>
     </LinearRing>
    </outerBoundaryIs>
   </Polygon>
  </Placemark>
 </Folder>
</Document>
</kml>
